INMARSAT 4-F2 (SOUTHPA*)
1 28899U 05044A   26116.73632354 -.00000270  00000+0  00000+0 0  9996
2 28899   5.0308  43.7600 0002738 349.2893 230.2135  1.00270978 75004
GSAT-8 (GAGAN/PRN 127)  
1 37605U 11022A   26116.76572684  .00000075  00000+0  00000+0 0  9998
2 37605   2.0001  82.4175 0004744 227.2999 235.7789  1.00270458 52704
LUCH 5A (SDCM/PRN 140)  
1 37951U 11074B   26116.89372149 -.00000055  00000+0  00000+0 0  9996
2 37951   8.6266  74.5466 0002737 304.8764 324.1316  1.00272956 52535
SES-5 (EGNOS/PRN 136)   
1 38652U 12036A   26116.70892005  .00000022  00000+0  00000+0 0  9995
2 38652   0.0594 300.4218 0002088  91.2198  83.2535  1.00271509 43941
GSAT-10 (GAGAN/PRN 128) 
1 38779U 12051B   26116.78239112 -.00000176  00000+0  00000+0 0  9995
2 38779   0.0232 263.3990 0007003 178.5582 137.4494  1.00270039 49581
LUCH 5B (SDCM/PRN 125)  
1 38977U 12061A   26116.63334639 -.00000144  00000+0  00000+0 0  9995
2 38977  10.3758  50.3860 0001747 214.4280 161.5503  1.00271594 49094
ASTRA 5B (EGNOS/PRN 123)
1 39617U 14011B   26116.85514992  .00000125  00000+0  00000+0 0  9998
2 39617   0.0675 307.7565 0002683  65.8000 172.6426  1.00269765 44155
LUCH 5V (SDCM/PRN 141)  
1 39727U 14023A   26116.89264284 -.00000276  00000+0  00000+0 0  9991
2 39727   5.0093  70.2471 0002232 339.1970 221.5602  1.00271833 43841
GSAT-15 (GAGAN/PRN 139) 
1 41028U 15065A   26116.88358220 -.00000269  00000+0  00000+0 0  9990
2 41028   0.0683 257.0979 0003724 145.0037 224.3792  1.00271989 38286
EUTELSAT 117 WEST B (W*)
1 41589U 16038B   26116.72196286 -.00000023  00000+0  00000+0 0  9996
2 41589   0.0117  96.3523 0000055  20.2428 241.0426  1.00271872 36145
SES-15 (WAAS/PRN 133)   
1 42709U 17026A   26116.72553317  .00000048  00000+0  00000+0 0  9997
2 42709   0.0245 325.6634 0000632  43.2935 337.8043  1.00269771  6918
QZS-2 (QZSS/PRN 194)    
1 42738U 17028A   26116.23428738 -.00000266  00000+0  00000+0 0  9998
2 42738  39.5095 243.9120 0740318 270.8047 281.9812  1.00247520  7109
QZS-3 (QZSS/PRN 199)    
1 42917U 17048A   26116.80436306 -.00000359  00000+0  00000+0 0  9995
2 42917   0.0515 181.6132 0001351 201.9551 247.8384  1.00270980 31749
QZS-4 (QZSS/PRN 195)    
1 42965U 17062A   26112.66690654 -.00000326  00000+0  00000+0 0  9996
2 42965  40.1416 344.1915 0746625 270.8161 335.9811  1.00266456 31246
BEIDOU-3 G1 (PRN 130)   
1 43683U 18085A   26116.86248979 -.00000119  00000+0  00000+0 0  9995
2 43683   2.9462  98.7329 0007375 333.4418 253.1094  1.00265466 27547
EUTELSAT 5 WEST B (EGN*)
1 44624U 19067A   26116.82475191 -.00000054  00000+0  00000+0 0  9994
2 44624   0.0692  10.8416 0003179  24.9586 110.9244  1.00271487 23920
BEIDOU-3 G2 (PRN 144)   
1 45344U 20017A   26116.79508968 -.00000150  00000+0  00000+0 0  9993
2 45344   2.7632  46.5324 0002531 347.8110 186.7221  1.00271463 22747
